     2.10           N: GPS NAV DATA                         RINEX VERSION / TYPE
teqc  2013Mar15     gpsops              20140515 00:05:26UTCPGM / RUN BY / DATE
Linux 2.4.21-27.ELsmp|Opteron|gcc -static|Linux x86_64|=+   COMMENT
MADR                                    MARKER NAME         COMMENT
13407S012                               MARKER NUMBER       COMMENT
4849202.3940 -360328.9929 4114913.1862                      COMMENT
                                                            COMMENT
This data is provided as a public service by NASA/JPL.      COMMENT
No warranty is expressed or implied regarding suitability   COMMENT
for use.  For further information, contact:                 COMMENT
Dave Stowers, NASA/JPL m/s 238-600                          COMMENT
4800 Oak Grove Drive, Pasadena CA 91109 USA                 COMMENT
                                                            END OF HEADER
 3 14  5 14  2  0  0.0 3.644353710115D-04 5.002220859751D-12 0.000000000000D+00
    8.000000000000D+01 2.137500000000D+01 5.004851329290D-09 2.401596884241D+00
    9.536743164062D-07 1.694499247242D-02 1.064874231815D-05 5.153791625977D+03
    2.664000000000D+05 1.639127731323D-07-2.649025718097D+00-1.490116119385D-07
    9.383962291810D-01 1.593437500000D+02 1.381381807617D+00-7.862827518327D-09
    6.382408710084D-10 1.000000000000D+00 1.792000000000D+03 0.000000000000D+00
    2.800000000000D+00 0.000000000000D+00-4.656612873077D-09 8.000000000000D+01
    2.592000000000D+05 4.000000000000D+00
19 14  5 14  2  0  0.0-4.567210562527D-04-2.160049916711D-12 0.000000000000D+00
    5.300000000000D+01 3.946875000000D+01 4.650193699233D-09 3.001931435545D+00
    2.004206180573D-06 1.029522425961D-02 9.007751941681D-06 5.153607976913D+03
    2.664000000000D+05-1.080334186554D-07-2.403902418265D+00-8.009374141693D-08
    9.656646637636D-01 2.095312500000D+02 4.256465788942D-01-7.815325539679D-09
    6.950289507456D-10 1.000000000000D+00 1.792000000000D+03 0.000000000000D+00
    2.000000000000D+00 0.000000000000D+00-1.490116119385D-08 5.300000000000D+01
    2.592000000000D+05 4.000000000000D+00
20 14  5 14  2  0  0.0 1.892154105008D-04 3.865352482535D-12 0.000000000000D+00
    2.900000000000D+01 9.000000000000D+00 5.102355390725D-09-3.790254921617D-01
    4.228204488754D-07 5.773350829259D-03 1.180917024612D-05 5.153804311752D+03
    2.664000000000D+05-2.980232238770D-08-4.646245974566D-01 2.980232238770D-08
    9.271032228277D-01 1.322500000000D+02 1.330892377810D+00-8.329632676921D-09
   -6.614561237311D-10 1.000000000000D+00 1.792000000000D+03 0.000000000000D+00
    2.000000000000D+00 0.000000000000D+00-8.381903171539D-09 2.900000000000D+01
    2.592000000000D+05 4.000000000000D+00
27 14  5 14  2  0  0.0-1.646624878049D-05 1.818989403546D-12 0.000000000000D+00
    1.800000000000D+01 3.659375000000D+01 4.648050752828D-09-2.413054919457D+00
    1.803040504456D-06 1.209557172842D-03 9.680166840553D-06 5.153670574188D+03
    2.664000000000D+05-2.421438694000D-08-2.500193138920D+00-7.450580596924D-09
    9.633612597490D-01 1.963437500000D+02 1.163709799813D-01-7.968903365383D-09
    6.918145311378D-10 1.000000000000D+00 1.792000000000D+03 0.000000000000D+00
    2.000000000000D+00 0.000000000000D+00 1.862645149231D-09 1.800000000000D+01
    2.592000000000D+05 4.000000000000D+00
 1 14  5 14  2  0  0.0 1.212581992149D-05 1.250555214938D-12 0.000000000000D+00
    5.900000000000D+01-1.856250000000D+01 5.177001357172D-09 1.656873316224D+00
   -8.158385753632D-07 3.018328803591D-03 4.850327968597D-06 5.153669603348D+03
    2.664000000000D+05 1.117587089539D-08-1.445094390096D+00 1.378357410431D-07
    9.603751952532D-01 2.855312500000D+02 3.085509087953D-01-8.373563078227D-09
   -3.232277494475D-10 1.000000000000D+00 1.792000000000D+03 0.000000000000D+00
    2.000000000000D+00 0.000000000000D+00 5.587935447693D-09 5.900000000000D+01
    2.592300000000D+05 4.000000000000D+00
11 14  5 14  2  0  0.0-4.887212999165D-04-3.183231456205D-12 0.000000000000D+00
    2.800000000000D+01 1.159375000000D+01 6.996362855167D-09 1.193669111281D+00
    4.731118679047D-07 1.492225169204D-02 4.233792424202D-06 5.153689794540D+03
    2.664000000000D+05-3.501772880554D-07-1.768238919071D+00-7.264316082001D-08
    8.900528797150D-01 2.648437500000D+02 1.283558759272D+00-9.455751012841D-09
    6.857428496565D-11 1.000000000000D+00 1.792000000000D+03 0.000000000000D+00
    2.000000000000D+00 0.000000000000D+00-1.210719347000D-08 2.800000000000D+01
    2.592300000000D+05 4.000000000000D+00
16 14  5 14  2  0  0.0-2.185739576817D-04 1.932676241267D-12 0.000000000000D+00
    8.300000000000D+01-1.102187500000D+02 3.641580257863D-09-1.560763892081D+00
   -6.075948476791D-06 7.745121023618D-03 1.149997115135D-05 5.153594896317D+03
    2.664000000000D+05 3.166496753693D-08 2.796945478817D+00-1.043081283569D-07
    9.883517246108D-01 1.679375000000D+02 2.010091894796D-01-7.560314917463D-09
    1.085759511956D-10 1.000000000000D+00 1.792000000000D+03 0.000000000000D+00
    2.800000000000D+00 0.000000000000D+00-1.024454832077D-08 8.300000000000D+01
    2.592300000000D+05 4.000000000000D+00
22 14  5 14  2  0  0.0 2.340483479202D-04 2.842170943040D-12 0.000000000000D+00
    3.800000000000D+01 9.125000000000D+00 5.055924885280D-09-1.462073892149D+00
    3.222376108170D-07 7.193826488219D-03 1.137703657150D-05 5.153730773926D+03
    2.664000000000D+05 2.197921276093D-07-4.096394711739D-01 1.229345798492D-07
    9.239336542767D-01 1.419687500000D+02-2.058286961422D+00-8.144624970608D-09
   -6.353836091348D-10 1.000000000000D+00 1.792000000000D+03 0.000000000000D+00
    2.000000000000D+00 0.000000000000D+00-1.722946763039D-08 3.800000000000D+01
    2.592300000000D+05 4.000000000000D+00
14 14  5 14  2  0  0.0 1.731016673148D-04-3.410605131648D-12 0.000000000000D+00
    8.700000000000D+01 1.291250000000D+02 4.099099315368D-09-2.578674400208D+00
    6.753951311111D-06 7.459115120582D-03 5.779787898064D-06 5.153660779953D+03
    2.664000000000D+05 5.587935447693D-09 7.187534088616D-01-5.029141902924D-08
    9.705150432643D-01 2.748750000000D+02-1.999354345271D+00-7.867470568871D-09
    3.778728827795D-10 1.000000000000D+00 1.792000000000D+03 0.000000000000D+00
    2.800000000000D+00 0.000000000000D+00-9.313225746155D-09 8.700000000000D+01
    2.592300000000D+05 4.000000000000D+00
28 14  5 14  2  0  0.0 3.545782528818D-04 2.842170943040D-12 0.000000000000D+00
    3.800000000000D+01-1.119062500000D+02 3.665152668320D-09-1.661301011878D+00
   -5.479902029037D-06 1.912272453774D-02 1.179799437523D-05 5.153677072525D+03
    2.664000000000D+05 2.905726432800D-07 2.802739212264D+00 3.706663846970D-07
    9.868765165567D-01 1.588437500000D+02-1.716137511536D+00-7.435309710494D-09
    2.535819912792D-11 1.000000000000D+00 1.792000000000D+03 0.000000000000D+00
    2.800000000000D+00 0.000000000000D+00-1.071020960808D-08 3.800000000000D+01
    2.592300000000D+05 4.000000000000D+00
32 14  5 14  2  0  0.0-4.294472746551D-04 8.185452315956D-12 0.000000000000D+00
    4.800000000000D+01 3.225000000000D+01 4.441970740197D-09 1.594717799380D+00
    1.749023795128D-06 1.141452766024D-02 1.222640275955D-05 5.153750280380D+03
    2.664000000000D+05 1.303851604462D-08-3.177920979336D-01 1.713633537292D-07
    9.481513999573D-01 1.358125000000D+02-1.595398448349D-01-7.829254691312D-09
   -6.803854836435D-10 1.000000000000D+00 1.792000000000D+03 0.000000000000D+00
    2.000000000000D+00 0.000000000000D+00-3.259629011154D-09 4.800000000000D+01
    2.592300000000D+05 4.000000000000D+00
23 14  5 14  2  0  0.0-2.029817551374D-05-3.069544618484D-12 0.000000000000D+00
    6.000000000000D+00 1.506875000000D+02 4.557689846076D-09 2.685242534376D+00
    7.679685950279D-06 9.304195526056D-03 6.698071956635D-06 5.153794900894D+03
    2.664000000000D+05-8.195638656616D-08 6.536596152038D-01-1.061707735062D-07
    9.522125234508D-01 2.457812500000D+02-2.792489263575D+00-8.170340327470D-09
    3.693010971588D-10 1.000000000000D+00 1.792000000000D+03 0.000000000000D+00
    2.000000000000D+00 0.000000000000D+00-2.002343535423D-08 6.000000000000D+00
    2.616600000000D+05 4.000000000000D+00
17 14  5 14  2  0  0.0-9.294738993049D-05-3.069544618484D-12 0.000000000000D+00
    4.400000000000D+01 2.953125000000D+01 4.550189533658D-09-2.505721538526D+00
    1.600012183189D-06 9.298278950155D-03 9.320676326752D-06 5.153587064743D+03
    2.664000000000D+05 2.533197402954D-07-2.454746841236D+00-3.352761268616D-08
    9.685843863875D-01 2.013750000000D+02-2.100351683004D+00-7.825325956236D-09
    7.450310335330D-10 1.000000000000D+00 1.792000000000D+03 0.000000000000D+00
    2.000000000000D+00 0.000000000000D+00-1.024454832077D-08 4.400000000000D+01
    2.631600000000D+05 4.000000000000D+00
 3 14  5 14  4  0  0.0 3.644712269306D-04 5.002220859751D-12 0.000000000000D+00
    8.100000000000D+01 2.521875000000D+01 4.964849663060D-09-2.831496822842D+00
    1.011416316032D-06 1.694503193721D-02 1.031905412674D-05 5.153791683197D+03
    2.736000000000D+05 2.421438694000D-07-2.649082855288D+00-7.450580596924D-09
    9.384009763502D-01 1.628437500000D+02 1.381402206547D+00-7.882828351442D-09
    7.353877747097D-10 1.000000000000D+00 1.792000000000D+03 0.000000000000D+00
    2.800000000000D+00 0.000000000000D+00-4.656612873077D-09 8.100000000000D+01
    2.664000000000D+05 4.000000000000D+00
19 14  5 14  4  0  0.0-4.567368887365D-04-2.160049916711D-12 0.000000000000D+00
    5.600000000000D+01 3.750000000000D+01 4.646979279625D-09-2.231061374079D+00
    1.635402441025D-06 1.029541890603D-02 8.832663297653D-06 5.153607425690D+03
    2.736000000000D+05 3.725290298462D-08-2.403959609584D+00-1.583248376846D-07
    9.656696376851D-01 2.127500000000D+02 4.256763258705D-01-7.911400970177D-09
    7.903900657759D-10 1.000000000000D+00 1.792000000000D+03 0.000000000000D+00
    2.000000000000D+00 0.000000000000D+00-1.490116119385D-08 5.600000000000D+01
    2.664000000000D+05 4.000000000000D+00
